[{"OBJECT_NAME":"PRAETORIAN SDA_618","OBJECT_ID":"2025-203S","EPOCH":"2026-03-09T13:20:40.860672","MEAN_MOTION":13.8476252,"ECCENTRICITY":0.0011029,"INCLINATION":81.2991,"RA_OF_ASC_NODE":102.8568,"ARG_OF_PERICENTER":103.2416,"MEAN_ANOMALY":256.9972,"EPHEMERIS_TYPE":0,"CLASSIFICATION_TYPE":"U","NORAD_CAT_ID":65581,"ELEMENT_SET_NO":999,"REV_AT_EPOCH":2492,"BSTAR":0.00021051,"MEAN_MOTION_DOT":2.49e-6,"MEAN_MOTION_DDOT":0},{"OBJECT_NAME":"COSMOS 1627","OBJECT_ID":"1985-011A","EPOCH":"2026-03-09T16:22:06.352608","MEAN_MOTION":13.74592961,"ECCENTRICITY":0.00405282,"INCLINATION":82.9198,"RA_OF_ASC_NODE":121.1133,"ARG_OF_PERICENTER":265.6051,"MEAN_ANOMALY":211.57,"EPHEMERIS_TYPE":0,"CLASSIFICATION_TYPE":"U","NORAD_CAT_ID":15505,"ELEMENT_SET_NO":999,"REV_AT_EPOCH":6143,"BSTAR":5.4517232e-5,"MEAN_MOTION_DOT":6.7e-7,"MEAN_MOTION_DDOT":0}]
